NUSAT-26 (M SOMERVILLE) 
1 52184U 22033AD  26195.93818194  .00008840  00000+0  20077-3 0  9994
2 52184  97.2347 274.8200 0006997 138.3989 221.7793 15.43237393108986
NUSAT-33 (ALBANIA-2)    
1 55047U 23001AQ  26195.91041867  .00005381  00000+0  19806-3 0  9999
2 55047  97.3057 256.2859 0004834 316.2199  43.8657 15.28262398196545
NUSAT-35 (WILLIAMINA)   
1 55048U 23001AR  26195.92614196  .00007923  00000+0  22919-3 0  9995
2 55048  97.1837 247.9824 0010499  11.1137 349.0337 15.35820649196662
NUSAT-39 (TIKVAH ALPER) 
1 56201U 23054Z   26195.91752791  .00016630  00000+0  31965-3 0  9994
2 56201  97.3098 105.9497 0001880 324.5140  35.5985 15.48006926182741
NUSAT-38 (MARIA AGNESI) 
1 56202U 23054AA  26195.78389711  .00019918  00000+0  34164-3 0  9994
2 56202  97.3038 106.5485 0008848 329.3842  30.6893 15.51181118182782
NUSAT-37 (JOAN CLARKE)  
1 56203U 23054AB  26195.97255712  .00032429  00000+0  40753-3 0  9992
2 56203  97.2608 103.6180 0007826 144.4696 215.7083 15.59596089182976
NUSAT-40 (C SHOEMAKER)  
1 56943U 23084M   26195.84427707  .00099836  00000+0  48049-3 0  9998
2 56943  97.4871 344.6777 0004105 189.2948 170.8245 15.82356814173173
NUSAT-41 (C PAYNE-G)    
1 56944U 23084N   26195.92084647  .00006282  00000+0  21795-3 0  9992
2 56944  97.5550 333.0842 0006456 212.0472 148.0377 15.30149725172022
NUSAT-42 (M WONENBURGER)
1 56966U 23084AL  26195.93345836  .00013717  00000+0  27797-3 0  9996
2 56966  97.5746 341.2384 0006758 146.9745 213.1927 15.46501791172362
NUSAT-44 (MARIA MITCHE*)
1 59122U 24043AA  26195.94200550  .00006178  00000+0  21638-3 0  9994
2 59122  97.5482 336.6294 0006461 132.1550 228.0240 15.29846701131515
NUSAT-50 (NANCY ROMAN)  
1 60493U 24149AB  26195.96241347  .00005319  00000+0  18394-3 0  9996
2 60493  97.3787 277.0318 0004874 102.2095 257.9692 15.30316423106370
NUSAT-48 (HENRIETTA LE*)
1 60498U 24149AG  26195.75525202  .00005094  00000+0  17656-3 0  9993
2 60498  97.3921 277.1172 0004704 160.0855 200.0570 15.30270403106351
NUSAT-49 (KLARA DAN VO*)
1 60500U 24149AJ  26195.73157901  .00004926  00000+0  17027-3 0  9997
2 60500  97.3780 276.8349 0002465 164.9617 195.1697 15.30377740106346
NUSAT-45 (UZMASAT-1)    
1 62640U 25009AH  26195.78599312  .00004990  00000+0  17247-3 0  9996
2 62640  97.3595 276.7384 0001844 178.6323 181.4923 15.30376674 83148
NUSAT-52                
1 66692U 25276AC  26195.73317135  .00002829  00000+0  13439-3 0  9997
2 66692  97.4200 268.8264 0001603 282.7758  77.3298 15.20034251 34600
NUSAT-51 (YVONNE BRILL) 
1 66740U 25276CC  26195.73450558  .00003349  00000+0  15612-3 0  9991
2 66740  97.4206 268.9704 0001729 239.8665 120.2399 15.20563135 34618
