{"fetched_at":"2026-07-15T06:36:15.996Z","source":"https://celestrak.org/NORAD/elements/gp.php?NAME=NUSAT&FORMAT=JSON","constellation":"satellogic","records":[{"OBJECT_NAME":"NUSAT-26 (M SOMERVILLE)","OBJECT_ID":"2022-033AD","EPOCH":"2026-07-14T22:30:58.919616","CLASSIFICATION_TYPE":"U","MEAN_MOTION":15.43237393,"ECCENTRICITY":0.00069974,"INCLINATION":97.2347,"RA_OF_ASC_NODE":274.82,"ARG_OF_PERICENTER":138.3989,"MEAN_ANOMALY":221.7793,"EPHEMERIS_TYPE":0,"NORAD_CAT_ID":52184,"ELEMENT_SET_NO":999,"REV_AT_EPOCH":10898,"BSTAR":0.0002007665,"MEAN_MOTION_DOT":0.0000884,"MEAN_MOTION_DDOT":0},{"OBJECT_NAME":"NUSAT-33 (ALBANIA-2)","OBJECT_ID":"2023-001AQ","EPOCH":"2026-07-14T21:51:00.173088","CLASSIFICATION_TYPE":"U","MEAN_MOTION":15.28262398,"ECCENTRICITY":0.00048341,"INCLINATION":97.3057,"RA_OF_ASC_NODE":256.2859,"ARG_OF_PERICENTER":316.2199,"MEAN_ANOMALY":43.8657,"EPHEMERIS_TYPE":0,"NORAD_CAT_ID":55047,"ELEMENT_SET_NO":999,"REV_AT_EPOCH":19654,"BSTAR":0.0001980604,"MEAN_MOTION_DOT":0.00005381,"MEAN_MOTION_DDOT":0},{"OBJECT_NAME":"NUSAT-35 (WILLIAMINA)","OBJECT_ID":"2023-001AR","EPOCH":"2026-07-14T22:13:38.665344","CLASSIFICATION_TYPE":"U","MEAN_MOTION":15.35820649,"ECCENTRICITY":0.00104995,"INCLINATION":97.1837,"RA_OF_ASC_NODE":247.9824,"ARG_OF_PERICENTER":11.1137,"MEAN_ANOMALY":349.0337,"EPHEMERIS_TYPE":0,"NORAD_CAT_ID":55048,"ELEMENT_SET_NO":999,"REV_AT_EPOCH":19666,"BSTAR":0.00022918606,"MEAN_MOTION_DOT":0.00007923,"MEAN_MOTION_DDOT":0},{"OBJECT_NAME":"NUSAT-39 (TIKVAH ALPER)","OBJECT_ID":"2023-054Z","EPOCH":"2026-07-14T22:01:14.411424","CLASSIFICATION_TYPE":"U","MEAN_MOTION":15.48006926,"ECCENTRICITY":0.00018807,"INCLINATION":97.3098,"RA_OF_ASC_NODE":105.9497,"ARG_OF_PERICENTER":324.514,"MEAN_ANOMALY":35.5985,"EPHEMERIS_TYPE":0,"NORAD_CAT_ID":56201,"ELEMENT_SET_NO":999,"REV_AT_EPOCH":18274,"BSTAR":0.00031964774,"MEAN_MOTION_DOT":0.0001663,"MEAN_MOTION_DDOT":0},{"OBJECT_NAME":"NUSAT-38 (MARIA AGNESI)","OBJECT_ID":"2023-054AA","EPOCH":"2026-07-14T18:48:48.710304","CLASSIFICATION_TYPE":"U","MEAN_MOTION":15.51181118,"ECCENTRICITY":0.00088488,"INCLINATION":97.3038,"RA_OF_ASC_NODE":106.5485,"ARG_OF_PERICENTER":329.3842,"MEAN_ANOMALY":30.6893,"EPHEMERIS_TYPE":0,"NORAD_CAT_ID":56202,"ELEMENT_SET_NO":999,"REV_AT_EPOCH":18278,"BSTAR":0.00034163547,"MEAN_MOTION_DOT":0.00019918,"MEAN_MOTION_DDOT":0},{"OBJECT_NAME":"NUSAT-37 (JOAN CLARKE)","OBJECT_ID":"2023-054AB","EPOCH":"2026-07-14T23:20:28.935168","CLASSIFICATION_TYPE":"U","MEAN_MOTION":15.59596089,"ECCENTRICITY":0.00078263,"INCLINATION":97.2608,"RA_OF_ASC_NODE":103.618,"ARG_OF_PERICENTER":144.4696,"MEAN_ANOMALY":215.7083,"EPHEMERIS_TYPE":0,"NORAD_CAT_ID":56203,"ELEMENT_SET_NO":999,"REV_AT_EPOCH":18297,"BSTAR":0.00040752637,"MEAN_MOTION_DOT":0.00032429,"MEAN_MOTION_DDOT":0},{"OBJECT_NAME":"NUSAT-40 (C SHOEMAKER)","OBJECT_ID":"2023-084M","EPOCH":"2026-07-14T20:15:45.538848","CLASSIFICATION_TYPE":"U","MEAN_MOTION":15.82356814,"ECCENTRICITY":0.0004105,"INCLINATION":97.4871,"RA_OF_ASC_NODE":344.6777,"ARG_OF_PERICENTER":189.2948,"MEAN_ANOMALY":170.8245,"EPHEMERIS_TYPE":0,"NORAD_CAT_ID":56943,"ELEMENT_SET_NO":999,"REV_AT_EPOCH":17317,"BSTAR":0.00048049327,"MEAN_MOTION_DOT":0.00099836,"MEAN_MOTION_DDOT":0},{"OBJECT_NAME":"NUSAT-41 (C PAYNE-G)","OBJECT_ID":"2023-084N","EPOCH":"2026-07-14T22:06:01.135008","CLASSIFICATION_TYPE":"U","MEAN_MOTION":15.30149725,"ECCENTRICITY":0.00064567,"INCLINATION":97.555,"RA_OF_ASC_NODE":333.0842,"ARG_OF_PERICENTER":212.0472,"MEAN_ANOMALY":148.0377,"EPHEMERIS_TYPE":0,"NORAD_CAT_ID":56944,"ELEMENT_SET_NO":999,"REV_AT_EPOCH":17202,"BSTAR":0.00021795359,"MEAN_MOTION_DOT":0.00006282,"MEAN_MOTION_DDOT":0},{"OBJECT_NAME":"NUSAT-42 (M WONENBURGER)","OBJECT_ID":"2023-084AL","EPOCH":"2026-07-14T22:24:10.802304","CLASSIFICATION_TYPE":"U","MEAN_MOTION":15.46501791,"ECCENTRICITY":0.0006758,"INCLINATION":97.5746,"RA_OF_ASC_NODE":341.2384,"ARG_OF_PERICENTER":146.9745,"MEAN_ANOMALY":213.1927,"EPHEMERIS_TYPE":0,"NORAD_CAT_ID":56966,"ELEMENT_SET_NO":999,"REV_AT_EPOCH":17236,"BSTAR":0.00027796908,"MEAN_MOTION_DOT":0.00013717,"MEAN_MOTION_DDOT":0},{"OBJECT_NAME":"NUSAT-44 (MARIA MITCHELL)","OBJECT_ID":"2024-043AA","EPOCH":"2026-07-14T22:36:29.275200","CLASSIFICATION_TYPE":"U","MEAN_MOTION":15.29846701,"ECCENTRICITY":0.00064618,"INCLINATION":97.5482,"RA_OF_ASC_NODE":336.6294,"ARG_OF_PERICENTER":132.155,"MEAN_ANOMALY":228.024,"EPHEMERIS_TYPE":0,"NORAD_CAT_ID":59122,"ELEMENT_SET_NO":999,"REV_AT_EPOCH":13151,"BSTAR":0.00021637528,"MEAN_MOTION_DOT":0.00006178,"MEAN_MOTION_DDOT":0},{"OBJECT_NAME":"NUSAT-50 (NANCY ROMAN)","OBJECT_ID":"2024-149AB","EPOCH":"2026-07-14T23:05:52.523808","CLASSIFICATION_TYPE":"U","MEAN_MOTION":15.30316423,"ECCENTRICITY":0.00048741,"INCLINATION":97.3787,"RA_OF_ASC_NODE":277.0318,"ARG_OF_PERICENTER":102.2095,"MEAN_ANOMALY":257.9692,"EPHEMERIS_TYPE":0,"NORAD_CAT_ID":60493,"ELEMENT_SET_NO":999,"REV_AT_EPOCH":10637,"BSTAR":0.00018394477,"MEAN_MOTION_DOT":0.00005319,"MEAN_MOTION_DDOT":0},{"OBJECT_NAME":"NUSAT-48 (HENRIETTA LEAVITT)","OBJECT_ID":"2024-149AG","EPOCH":"2026-07-14T18:07:33.774528","CLASSIFICATION_TYPE":"U","MEAN_MOTION":15.30270403,"ECCENTRICITY":0.00047044,"INCLINATION":97.3921,"RA_OF_ASC_NODE":277.1172,"ARG_OF_PERICENTER":160.0855,"MEAN_ANOMALY":200.057,"EPHEMERIS_TYPE":0,"NORAD_CAT_ID":60498,"ELEMENT_SET_NO":999,"REV_AT_EPOCH":10635,"BSTAR":0.00017655927,"MEAN_MOTION_DOT":0.00005094,"MEAN_MOTION_DDOT":0},{"OBJECT_NAME":"NUSAT-49 (KLARA DAN VON NEUMANN)","OBJECT_ID":"2024-149AJ","EPOCH":"2026-07-14T17:33:28.426464","CLASSIFICATION_TYPE":"U","MEAN_MOTION":15.3037774,"ECCENTRICITY":0.0002465,"INCLINATION":97.378,"RA_OF_ASC_NODE":276.8349,"ARG_OF_PERICENTER":164.9617,"MEAN_ANOMALY":195.1697,"EPHEMERIS_TYPE":0,"NORAD_CAT_ID":60500,"ELEMENT_SET_NO":999,"REV_AT_EPOCH":10634,"BSTAR":0.00017027051,"MEAN_MOTION_DOT":0.00004926,"MEAN_MOTION_DDOT":0},{"OBJECT_NAME":"NUSAT-45 (UZMASAT-1)","OBJECT_ID":"2025-009AH","EPOCH":"2026-07-14T18:51:49.805568","CLASSIFICATION_TYPE":"U","MEAN_MOTION":15.30376674,"ECCENTRICITY":0.00018444,"INCLINATION":97.3595,"RA_OF_ASC_NODE":276.7384,"ARG_OF_PERICENTER":178.6323,"MEAN_ANOMALY":181.4923,"EPHEMERIS_TYPE":0,"NORAD_CAT_ID":62640,"ELEMENT_SET_NO":999,"REV_AT_EPOCH":8314,"BSTAR":0.00017246794,"MEAN_MOTION_DOT":0.0000499,"MEAN_MOTION_DDOT":0},{"OBJECT_NAME":"NUSAT-52","OBJECT_ID":"2025-276AC","EPOCH":"2026-07-14T17:35:46.004640","CLASSIFICATION_TYPE":"U","MEAN_MOTION":15.20034251,"ECCENTRICITY":0.00016039,"INCLINATION":97.42,"RA_OF_ASC_NODE":268.8264,"ARG_OF_PERICENTER":282.7758,"MEAN_ANOMALY":77.3298,"EPHEMERIS_TYPE":0,"NORAD_CAT_ID":66692,"ELEMENT_SET_NO":999,"REV_AT_EPOCH":3460,"BSTAR":0.00013438501,"MEAN_MOTION_DOT":0.00002829,"MEAN_MOTION_DDOT":0},{"OBJECT_NAME":"NUSAT-51 (YVONNE BRILL)","OBJECT_ID":"2025-276CC","EPOCH":"2026-07-14T17:37:41.282112","CLASSIFICATION_TYPE":"U","MEAN_MOTION":15.20563135,"ECCENTRICITY":0.0001729,"INCLINATION":97.4206,"RA_OF_ASC_NODE":268.9704,"ARG_OF_PERICENTER":239.8665,"MEAN_ANOMALY":120.2399,"EPHEMERIS_TYPE":0,"NORAD_CAT_ID":66740,"ELEMENT_SET_NO":999,"REV_AT_EPOCH":3461,"BSTAR":0.00015612379,"MEAN_MOTION_DOT":0.00003349,"MEAN_MOTION_DDOT":0}]}
